start=new Date('2021-10-18T00:00:00.000Z').valueOf();
sats=[{"SEMIMAJOR_AXIS":"6925.366","TLE_LINE2":"2 45685  53.0560  57.3357 0001316 102.1141 257.9996 15.06394339 77116","CENTER_NAME":"EARTH","PERIOD":"95.592","SITE":"AFETR","TIME_SYSTEM":"UTC","REF_FRAME":"TEME","TLE_LINE1":"1 45685U 20035AE  21290.67355927  .00001223  00000-0  10099-3 0  9996","BSTAR":"0.00010099000000","ELEMENT_SET_NO":"999","RCS_SIZE":"LARGE","OBJECT_TYPE":"PAYLOAD","RA_OF_ASC_NODE":"57.3357","MEAN_MOTION_DDOT":"0.0000000000000","REV_AT_EPOCH":"7711","EPOCH":"2021-10-17T16:09:55.520928","ECCENTRICITY":"0.00013160","APOAPSIS":"548.142","OBJECT_ID":"2020-035AE","MEAN_MOTION_DOT":"0.00001223","EPHEMERIS_TYPE":"0","MEAN_ANOMALY":"257.9996","ARG_OF_PERICENTER":"102.1141","FILE":"3168566","DECAY_DATE":null,"MEAN_MOTION":"15.06394339","PERIAPSIS":"546.320","GP_ID":"187442575","NORAD_CAT_ID":"45685","MEAN_ELEMENT_THEORY":"SGP4","LAUNCH_DATE":"2020-06-04","OBJECT_NAME":"STARLINK-1402","COUNTRY_CODE":"US","CLASSIFICATION_TYPE":"U","INCLINATION":"53.0560"},{"RCS_SIZE":"LARGE","ELEMENT_SET_NO":"999","REV_AT_EPOCH":"7711","MEAN_MOTION_DDOT":"0.0000000000000","OBJECT_TYPE":"PAYLOAD","RA_OF_ASC_NODE":"57.3652","SEMIMAJOR_AXIS":"6925.399","TLE_LINE1":"1 45686U 20035AF  21290.66619116 -.00000459  00000-0 -11922-4 0  9998","BSTAR":"-0.00001192200000","TIME_SYSTEM":"UTC","REF_FRAME":"TEME","SITE":"AFETR","TLE_LINE2":"2 45686  53.0552  57.3652 0001316  99.0994 261.0144 15.06383409 77113","CENTER_NAME":"EARTH","PERIOD":"95.593","OBJECT_NAME":"STARLINK-1404","COUNTRY_CODE":"US","LAUNCH_DATE":"2020-06-04","INCLINATION":"53.0552","CLASSIFICATION_TYPE":"U","FILE":"3168566","ARG_OF_PERICENTER":"99.0994","DECAY_DATE":null,"MEAN_MOTION_DOT":"-0.00000459","MEAN_ANOMALY":"261.0144","EPHEMERIS_TYPE":"0","OBJECT_ID":"2020-035AF","ECCENTRICITY":"0.00013160","EPOCH":"2021-10-17T15:59:18.916224","APOAPSIS":"548.176","GP_ID":"187442825","NORAD_CAT_ID":"45686","PERIAPSIS":"546.353","MEAN_ELEMENT_THEORY":"SGP4","MEAN_MOTION":"15.06383409"},{"LAUNCH_DATE":"2020-06-04","COUNTRY_CODE":"US","OBJECT_NAME":"STARLINK-1406","CLASSIFICATION_TYPE":"U","INCLINATION":"53.0027","APOAPSIS":"550.653","EPOCH":"2021-10-17T15:56:10.114944","ECCENTRICITY":"0.00013500","OBJECT_ID":"2020-035AG","EPHEMERIS_TYPE":"0","MEAN_ANOMALY":"285.8069","MEAN_MOTION_DOT":"0.00001275","DECAY_DATE":null,"FILE":"3168566","ARG_OF_PERICENTER":"74.3068","MEAN_MOTION":"15.05583199","GP_ID":"187443577","PERIAPSIS":"548.783","NORAD_CAT_ID":"45687","MEAN_ELEMENT_THEORY":"SGP4","ELEMENT_SET_NO":"999","RCS_SIZE":"LARGE","OBJECT_TYPE":"PAYLOAD","RA_OF_ASC_NODE":"47.3728","MEAN_MOTION_DDOT":"0.0000000000000","REV_AT_EPOCH":"7722","SEMIMAJOR_AXIS":"6927.853","CENTER_NAME":"EARTH","PERIOD":"95.644","TLE_LINE2":"2 45687  53.0027  47.3728 0001350  74.3068 285.8069 15.05583199 77229","SITE":"AFETR","REF_FRAME":"TEME","TIME_SYSTEM":"UTC","BSTAR":"0.00010666000000","TLE_LINE1":"1 45687U 20035AG  21290.66400596  .00001275  00000-0  10666-3 0  9997"},{"ELEMENT_SET_NO":"999","RCS_SIZE":"LARGE","OBJECT_TYPE":"PAYLOAD","RA_OF_ASC_NODE":"57.3931","MEAN_MOTION_DDOT":"0.0000000000000","REV_AT_EPOCH":"7710","SEMIMAJOR_AXIS":"6925.362","PERIOD":"95.592","CENTER_NAME":"EARTH","TLE_LINE2":"2 45688  53.0549  57.3931 0001080  86.6933 273.4179 15.06395576 77106","SITE":"AFETR","REF_FRAME":"TEME","TIME_SYSTEM":"UTC","BSTAR":"0.00013033000000","TLE_LINE1":"1 45688U 20035AH  21290.65881718  .00001660  00000-0  13033-3 0  9995","LAUNCH_DATE":"2020-06-04","COUNTRY_CODE":"US","OBJECT_NAME":"STARLINK-1408","CLASSIFICATION_TYPE":"U","INCLINATION":"53.0549","APOAPSIS":"547.975","ECCENTRICITY":"0.00010800","EPOCH":"2021-10-17T15:48:41.804352","OBJECT_ID":"2020-035AH","EPHEMERIS_TYPE":"0","MEAN_ANOMALY":"273.4179","MEAN_MOTION_DOT":"0.00001660","DECAY_DATE":null,"FILE":"3168566","ARG_OF_PERICENTER":"86.6933","MEAN_MOTION":"15.06395576","GP_ID":"187443328","PERIAPSIS":"546.479","NORAD_CAT_ID":"45688","MEAN_ELEMENT_THEORY":"SGP4"},{"SEMIMAJOR_AXIS":"6925.379","TIME_SYSTEM":"UTC","REF_FRAME":"TEME","TLE_LINE1":"1 45689U 20035AJ  21290.61826419  .00001149  00000-0  96045-4 0  9996","BSTAR":"0.00009604500000","TLE_LINE2":"2 45689  53.0539  57.5737 0001451  95.6663 264.4492 15.06390058 77012","CENTER_NAME":"EARTH","PERIOD":"95.593","SITE":"AFETR","ELEMENT_SET_NO":"999","RCS_SIZE":"LARGE","MEAN_MOTION_DDOT":"0.0000000000000","REV_AT_EPOCH":"7701","OBJECT_TYPE":"PAYLOAD","RA_OF_ASC_NODE":"57.5737","MEAN_MOTION_DOT":"0.00001149","EPHEMERIS_TYPE":"0","MEAN_ANOMALY":"264.4492","ARG_OF_PERICENTER":"95.6663","FILE":"3168566","DECAY_DATE":null,"ECCENTRICITY":"0.00014510","EPOCH":"2021-10-17T14:50:18.026016","APOAPSIS":"548.249","OBJECT_ID":"2020-035AJ","GP_ID":"187442076","PERIAPSIS":"546.239","NORAD_CAT_ID":"45689","MEAN_ELEMENT_THEORY":"SGP4","MEAN_MOTION":"15.06390058","OBJECT_NAME":"STARLINK-1413","COUNTRY_CODE":"US","LAUNCH_DATE":"2020-06-04","CLASSIFICATION_TYPE":"U","INCLINATION":"53.0539"},{"OBJECT_TYPE":"PAYLOAD","RA_OF_ASC_NODE":"57.3603","REV_AT_EPOCH":"7708","MEAN_MOTION_DDOT":"0.0000000000000","RCS_SIZE":"LARGE","ELEMENT_SET_NO":"999","SITE":"AFETR","TLE_LINE2":"2 45690  53.0031  57.3603 0001362 108.6523 251.4613 15.05593502 77088","PERIOD":"95.643","CENTER_NAME":"EARTH","TLE_LINE1":"1 45690U 20035AK  21290.66584131  .00001574  00000-0  12714-3 0  9997","BSTAR":"0.00012714000000","TIME_SYSTEM":"UTC","REF_FRAME":"TEME","SEMIMAJOR_AXIS":"6927.821","INCLINATION":"53.0031","CLASSIFICATION_TYPE":"U","LAUNCH_DATE":"2020-06-04","OBJECT_NAME":"STARLINK-1414","COUNTRY_CODE":"US","MEAN_MOTION":"15.05593502","GP_ID":"187442326","PERIAPSIS":"548.743","NORAD_CAT_ID":"45690","MEAN_ELEMENT_THEORY":"SGP4","OBJECT_ID":"2020-035AK","ECCENTRICITY":"0.00013620","EPOCH":"2021-10-17T15:58:48.689184","APOAPSIS":"550.630","ARG_OF_PERICENTER":"108.6523","FILE":"3168566","DECAY_DATE":null,"MEAN_MOTION_DOT":"0.00001574","MEAN_ANOMALY":"251.4613","EPHEMERIS_TYPE":"0"},{"TLE_LINE2":"2 45691  53.0561  57.3534 0001473  89.3745 270.7413 15.06395949 77116","CENTER_NAME":"EARTH","PERIOD":"95.592","SITE":"AFETR","TIME_SYSTEM":"UTC","REF_FRAME":"TEME","TLE_LINE1":"1 45691U 20035AL  21290.66987373  .00001541  00000-0  12234-3 0  9994","BSTAR":"0.00012234000000","SEMIMAJOR_AXIS":"6925.361","OBJECT_TYPE":"PAYLOAD","RA_OF_ASC_NODE":"57.3534","MEAN_MOTION_DDOT":"0.0000000000000","REV_AT_EPOCH":"7711","ELEMENT_SET_NO":"999","RCS_SIZE":"LARGE","MEAN_MOTION":"15.06395949","GP_ID":"187443078","PERIAPSIS":"546.206","MEAN_ELEMENT_THEORY":"SGP4","NORAD_CAT_ID":"45691","ECCENTRICITY":"0.00014730","EPOCH":"2021-10-17T16:04:37.090272","APOAPSIS":"548.246","OBJECT_ID":"2020-035AL","MEAN_MOTION_DOT":"0.00001541","MEAN_ANOMALY":"270.7413","EPHEMERIS_TYPE":"0","FILE":"3168566","ARG_OF_PERICENTER":"89.3745","DECAY_DATE":null,"CLASSIFICATION_TYPE":"U","INCLINATION":"53.0561","LAUNCH_DATE":"2020-06-04","OBJECT_NAME":"STARLINK-1415","COUNTRY_CODE":"US"},{"SITE":"AFETR","PERIOD":"95.592","CENTER_NAME":"EARTH","TLE_LINE2":"2 45692  53.0558  57.3863 0001379  92.5335 267.5812 15.06395451 77108","BSTAR":"0.00011048000000","TLE_LINE1":"1 45692U 20035AM  21290.66250185  .00001364  00000-0  11048-3 0  9994","REF_FRAME":"TEME","TIME_SYSTEM":"UTC","SEMIMAJOR_AXIS":"6925.363","OBJECT_TYPE":"PAYLOAD","RA_OF_ASC_NODE":"57.3863","REV_AT_EPOCH":"7710","MEAN_MOTION_DDOT":"0.0000000000000","RCS_SIZE":"LARGE","ELEMENT_SET_NO":"999","MEAN_MOTION":"15.06395451","GP_ID":"187443828","PERIAPSIS":"546.272","MEAN_ELEMENT_THEORY":"SGP4","NORAD_CAT_ID":"45692","OBJECT_ID":"2020-035AM","APOAPSIS":"548.183","ECCENTRICITY":"0.00013790","EPOCH":"2021-10-17T15:54:00.159840","DECAY_DATE":null,"ARG_OF_PERICENTER":"92.5335","FILE":"3168566","EPHEMERIS_TYPE":"0","MEAN_ANOMALY":"267.5812","MEAN_MOTION_DOT":"0.00001364","INCLINATION":"53.0558","CLASSIFICATION_TYPE":"U","LAUNCH_DATE":"2020-06-04","COUNTRY_CODE":"US","OBJECT_NAME":"STARLINK-1416"},{"APOAPSIS":"548.009","ECCENTRICITY":"0.00011720","EPOCH":"2021-10-17T14:44:59.877888","OBJECT_ID":"2020-035AN","EPHEMERIS_TYPE":"0","MEAN_ANOMALY":"258.2610","MEAN_MOTION_DOT":"-0.00000695","DECAY_DATE":null,"FILE":"3168566","ARG_OF_PERICENTER":"101.8511","MEAN_MOTION":"15.06405445","GP_ID":"187442576","NORAD_CAT_ID":"45693","PERIAPSIS":"546.385","MEAN_ELEMENT_THEORY":"SGP4","LAUNCH_DATE":"2020-06-04","COUNTRY_CODE":"US","OBJECT_NAME":"STARLINK-1417","CLASSIFICATION_TYPE":"U","INCLINATION":"53.0553","SEMIMAJOR_AXIS":"6925.332","CENTER_NAME":"EARTH","PERIOD":"95.592","TLE_LINE2":"2 45693  53.0553  57.5985 0001172 101.8511 258.2610 15.06405445 77098","SITE":"AFETR","REF_FRAME":"TEME","TIME_SYSTEM":"UTC","BSTAR":"-0.00002778900000","TLE_LINE1":"1 45693U 20035AN  21290.61458192 -.00000695  00000-0 -27789-4 0  9996","ELEMENT_SET_NO":"999","RCS_SIZE":"LARGE","OBJECT_TYPE":"PAYLOAD","RA_OF_ASC_NODE":"57.5985","MEAN_MOTION_DDOT":"0.0000000000000","REV_AT_EPOCH":"7709"},{"MEAN_ANOMALY":"259.2155","EPHEMERIS_TYPE":"0","MEAN_MOTION_DOT":"0.00001256","DECAY_DATE":null,"FILE":"3168566","ARG_OF_PERICENTER":"100.8994","APOAPSIS":"548.210","ECCENTRICITY":"0.00014260","EPOCH":"2021-10-17T14:55:35.960736","OBJECT_ID":"2020-035AP","GP_ID":"187442826","PERIAPSIS":"546.235","NORAD_CAT_ID":"45694","MEAN_ELEMENT_THEORY":"SGP4","MEAN_MOTION":"15.06397108","COUNTRY_CODE":"US","OBJECT_NAME":"STARLINK-1419","LAUNCH_DATE":"2020-06-04","CLASSIFICATION_TYPE":"U","INCLINATION":"53.0548","SEMIMAJOR_AXIS":"6925.357","REF_FRAME":"TEME","TIME_SYSTEM":"UTC","BSTAR":"0.00010319000000","TLE_LINE1":"1 45694U 20035AP  21290.62194399  .00001256  00000-0  10319-3 0  9996","PERIOD":"95.592","CENTER_NAME":"EARTH","TLE_LINE2":"2 45694  53.0548  57.5600 0001426 100.8994 259.2155 15.06397108 77094","SITE":"AFETR","ELEMENT_SET_NO":"999","RCS_SIZE":"LARGE","MEAN_MOTION_DDOT":"0.0000000000000","REV_AT_EPOCH":"7709","OBJECT_TYPE":"PAYLOAD","RA_OF_ASC_NODE":"57.5600"}];
